{
  "type": "FeatureCollection",
  "features": [
    {
      "type": "Feature",
      "properties": {
        "norad_id": 28054,
        "name": "DMSP 5D-3 F16 (USA 172)",
        "group": "weather",
        "lat": -25.680916659525593,
        "lon": -167.49694146354668,
        "alt_km": 848.6328156262434,
        "timestamp": "2025-12-25T07:41:09.365998+00:00",
        "meta_object_name": "DMSP 5D-3 F16 (USA 172)",
        "meta_object_id": "2003-048A",
        "meta_epoch": "2025-12-24T22:31:16.915872",
        "meta_mean_motion": 14.14428451,
        "meta_eccentricity": 0.00062475,
        "meta_inclination": 99.0038,
        "meta_ra_of_asc_node": 16.4908,
        "meta_arg_of_pericenter": 281.7094,
        "meta_mean_anomaly": 140.9612,
        "meta_ephemeris_type": 0,
        "meta_classification_type": "U",
        "meta_norad_cat_id": 28054,
        "meta_element_set_no": 999,
        "meta_rev_at_epoch": 14485,
        "meta_bstar": 8.3066216e-05,
        "meta_mean_motion_dot": 1.14e-06,
        "meta_mean_motion_ddot": 0,
        "tle_line1": "1 28054U 03048A   25358.93839023  .00000114  00000+0  83066-4 0  9996",
        "tle_line2": "2 28054  99.0038  16.4908 0006247 281.7094 140.9612 14.14428451144857"
      },
      "geometry": {
        "type": "Point",
        "coordinates": [
          -167.49694146354668,
          -25.680916659525593
        ]
      }
    },
    {
      "type": "Feature",
      "properties": {
        "norad_id": 28912,
        "name": "METEOSAT-9 (MSG-2)",
        "group": "weather",
        "lat": -2.6973124561742026,
        "lon": -106.83623375575847,
        "alt_km": 35756.59049105189,
        "timestamp": "2025-12-25T07:41:09.366047+00:00",
        "meta_object_name": "METEOSAT-9 (MSG-2)",
        "meta_object_id": "2005-049B",
        "meta_epoch": "2025-12-24T18:27:10.310976",
        "meta_mean_motion": 1.00268275,
        "meta_eccentricity": 0.00719695,
        "meta_inclination": 8.9553,
        "meta_ra_of_asc_node": 55.846,
        "meta_arg_of_pericenter": 282.2974,
        "meta_mean_anomaly": 77.0088,
        "meta_ephemeris_type": 0,
        "meta_classification_type": "U",
        "meta_norad_cat_id": 28912,
        "meta_element_set_no": 999,
        "meta_rev_at_epoch": 524,
        "meta_bstar": 0,
        "meta_mean_motion_dot": 1.45e-06,
        "meta_mean_motion_ddot": 0,
        "tle_line1": "1 28912U 05049B   25358.76886934  .00000145  00000+0  00000+0 0  9992",
        "tle_line2": "2 28912   8.9553  55.8460 0071969 282.2974  77.0088  1.00268275  5240"
      },
      "geometry": {
        "type": "Point",
        "coordinates": [
          -106.83623375575847,
          -2.6973124561742026
        ]
      }
    },
    {
      "type": "Feature",
      "properties": {
        "norad_id": 29522,
        "name": "DMSP 5D-3 F17 (USA 191)",
        "group": "weather",
        "lat": 11.28376029335662,
        "lon": -173.79388594843869,
        "alt_km": 837.1125264400407,
        "timestamp": "2025-12-25T07:41:09.366064+00:00",
        "meta_object_name": "DMSP 5D-3 F17 (USA 191)",
        "meta_object_id": "2006-050A",
        "meta_epoch": "2025-12-24T22:24:22.491360",
        "meta_mean_motion": 14.14924618,
        "meta_eccentricity": 0.00099288,
        "meta_inclination": 98.7392,
        "meta_ra_of_asc_node": 4.0688,
        "meta_arg_of_pericenter": 188.5346,
        "meta_mean_anomaly": 171.566,
        "meta_ephemeris_type": 0,
        "meta_classification_type": "U",
        "meta_norad_cat_id": 29522,
        "meta_element_set_no": 999,
        "meta_rev_at_epoch": 98777,
        "meta_bstar": 9.8905538e-05,
        "meta_mean_motion_dot": 1.48e-06,
        "meta_mean_motion_ddot": 0,
        "tle_line1": "1 29522U 06050A   25358.93359365  .00000148  00000+0  98906-4 0  9995",
        "tle_line2": "2 29522  98.7392   4.0688 0009928 188.5346 171.5660 14.14924618987773"
      },
      "geometry": {
        "type": "Point",
        "coordinates": [
          -173.79388594843869,
          11.28376029335662
        ]
      }
    },
    {
      "type": "Feature",
      "properties": {
        "norad_id": 32958,
        "name": "FENGYUN 3A",
        "group": "weather",
        "lat": 81.31964433384348,
        "lon": -153.06080988866313,
        "alt_km": 825.0039187171387,
        "timestamp": "2025-12-25T07:41:09.366077+00:00",
        "meta_object_name": "FENGYUN 3A",
        "meta_object_id": "2008-026A",
        "meta_epoch": "2025-12-24T19:25:13.141632",
        "meta_mean_motion": 14.19518258,
        "meta_eccentricity": 0.00076114,
        "meta_inclination": 98.6714,
        "meta_ra_of_asc_node": 298.0827,
        "meta_arg_of_pericenter": 271.2931,
        "meta_mean_anomaly": 88.7373,
        "meta_ephemeris_type": 0,
        "meta_classification_type": "U",
        "meta_norad_cat_id": 32958,
        "meta_element_set_no": 999,
        "meta_rev_at_epoch": 91066,
        "meta_bstar": 7.9047687e-05,
        "meta_mean_motion_dot": 1.23e-06,
        "meta_mean_motion_ddot": 0,
        "tle_line1": "1 32958U 08026A   25358.80917988  .00000123  00000+0  79048-4 0  9993",
        "tle_line2": "2 32958  98.6714 298.0827 0007611 271.2931  88.7373 14.19518258910662"
      },
      "geometry": {
        "type": "Point",
        "coordinates": [
          -153.06080988866313,
          81.31964433384348
        ]
      }
    },
    {
      "type": "Feature",
      "properties": {
        "norad_id": 35491,
        "name": "GOES 14",
        "group": "weather",
        "lat": 0.15788764684340734,
        "lon": 91.68229690209729,
        "alt_km": 35837.86921907025,
        "timestamp": "2025-12-25T07:41:09.366092+00:00",
        "meta_object_name": "GOES 14",
        "meta_object_id": "2009-033A",
        "meta_epoch": "2025-12-24T13:17:44.547648",
        "meta_mean_motion": 1.00097021,
        "meta_eccentricity": 6.569e-05,
        "meta_inclination": 1.2326,
        "meta_ra_of_asc_node": 85.2846,
        "meta_arg_of_pericenter": 190.4706,
        "meta_mean_anomaly": 259.8072,
        "meta_ephemeris_type": 0,
        "meta_classification_type": "U",
        "meta_norad_cat_id": 35491,
        "meta_element_set_no": 999,
        "meta_rev_at_epoch": 484,
        "meta_bstar": 0,
        "meta_mean_motion_dot": 3.4e-07,
        "meta_mean_motion_ddot": 0,
        "tle_line1": "1 35491U 09033A   25358.55398782  .00000034  00000+0  00000+0 0  9992",
        "tle_line2": "2 35491   1.2326  85.2846 0000656 190.4706 259.8072  1.00097021  4844"
      },
      "geometry": {
        "type": "Point",
        "coordinates": [
          91.68229690209729,
          0.15788764684340734
        ]
      }
    },
    {
      "type": "Feature",
      "properties": {
        "norad_id": 35951,
        "name": "DMSP 5D-3 F18 (USA 210)",
        "group": "weather",
        "lat": 28.838635630703717,
        "lon": -29.282219540443617,
        "alt_km": 833.1982064925724,
        "timestamp": "2025-12-25T07:41:09.366105+00:00",
        "meta_object_name": "DMSP 5D-3 F18 (USA 210)",
        "meta_object_id": "2009-057A",
        "meta_epoch": "2025-12-24T21:21:52.587936",
        "meta_mean_motion": 14.14777156,
        "meta_eccentricity": 0.00117086,
        "meta_inclination": 98.8849,
        "meta_ra_of_asc_node": 335.231,
        "meta_arg_of_pericenter": 30.6251,
        "meta_mean_anomaly": 329.5603,
        "meta_ephemeris_type": 0,
        "meta_classification_type": "U",
        "meta_norad_cat_id": 35951,
        "meta_element_set_no": 999,
        "meta_rev_at_epoch": 83494,
        "meta_bstar": 0.0001688878,
        "meta_mean_motion_dot": 2.81e-06,
        "meta_mean_motion_ddot": 0,
        "tle_line1": "1 35951U 09057A   25358.89019199  .00000281  00000+0  16889-3 0  9998",
        "tle_line2": "2 35951  98.8849 335.2310 0011708  30.6251 329.5603 14.14777156834941"
      },
      "geometry": {
        "type": "Point",
        "coordinates": [
          -29.282219540443617,
          28.838635630703717
        ]
      }
    },
    {
      "type": "Feature",
      "properties": {
        "norad_id": 36411,
        "name": "EWS-G2 (GOES 15)",
        "group": "weather",
        "lat": -0.08843510446164397,
        "lon": -89.27710666569104,
        "alt_km": 35762.79057859858,
        "timestamp": "2025-12-25T07:41:09.366118+00:00",
        "meta_object_name": "EWS-G2 (GOES 15)",
        "meta_object_id": "2010-008A",
        "meta_epoch": "2025-12-24T21:57:05.207904",
        "meta_mean_motion": 1.0027102,
        "meta_eccentricity": 0.00055752,
        "meta_inclination": 0.8418,
        "meta_ra_of_asc_node": 86.0746,
        "meta_arg_of_pericenter": 179.0155,
        "meta_mean_anomaly": 219.2166,
        "meta_ephemeris_type": 0,
        "meta_classification_type": "U",
        "meta_norad_cat_id": 36411,
        "meta_element_set_no": 999,
        "meta_rev_at_epoch": 5789,
        "meta_bstar": 0,
        "meta_mean_motion_dot": 5.9e-07,
        "meta_mean_motion_ddot": 0,
        "tle_line1": "1 36411U 10008A   25358.91464361  .00000059  00000+0  00000+0 0  9993",
        "tle_line2": "2 36411   0.8418  86.0746 0005575 179.0155 219.2166  1.00271020 57898"
      },
      "geometry": {
        "type": "Point",
        "coordinates": [
          -89.27710666569104,
          -0.08843510446164397
        ]
      }
    }
  ]
}